"Borough","Measurement","Postcode","Latitude","Longitude","Address","School.Name","Jan.Ave","Feb.Ave","Mar.Ave","Apr.Ave","May.Ave","Jun.Ave","Jul.Ave","Aug.Ave","Sep.Ave","Oct.Ave","Nov.Ave","Dec.Ave"
"Manhattan","Electricity Demand (KW)",10034,40.867826,-73.917059,"512 West 212th St ","Shorac Kappock School",170.5,161,150,156.5,146,78.67,123.5,158.5,166.5,174.5,174,173.5
"Manhattan","Electricity Usage (KWH)",10034,40.867826,-73.917059,"512 West 212th St ","Shorac Kappock School",55400,46100,49100,51300,32866.67,26600,35850,60500,54650,60050,57650,58400
"Manhattan","Gas (Therms)",10034,40.867826,-73.917059,"512 West 212th St ","Shorac Kappock School",9003.5,4195,1169.25,316,126.67,106.67,253.5,1889,6506,13385.25,15654.5,13877.75
"Manhattan","Total Usage (mmBTUs)",10034,40.867826,-73.917059,"512 West 212th St ","Shorac Kappock School",1089.43,576.84,284.5,206.69,124.84,101.45,147.7,395.38,837.12,1543.47,1762.21,1587.09
"Manhattan","Electricity Demand (KW)",10029,40.788952,-73.944538,"232 East 103rd St ","Roberto Clemente School",131.2,138.4,136.4,167.6,150.93,139.73,157.6,142.8,134.4,134.8,134.4,134.4
"Manhattan","Electricity Usage (KWH)",10029,40.788952,-73.944538,"232 East 103rd St ","Roberto Clemente School",47080,41440,42600,50000,51200,54026.67,52200,47920,47520,52440,48160,50240
"Manhattan","Gas (Therms)",10029,40.788952,-73.944538,"232 East 103rd St ","Roberto Clemente School",3439.75,2307.5,1023.5,164.5,173.33,84.33,73.25,969.5,3946.75,5333.5,6232.25,6096.75
"Manhattan","Total Usage (mmBTUs)",10029,40.788952,-73.944538,"232 East 103rd St ","Roberto Clemente School",504.66,372.18,247.74,187.1,192.07,192.82,185.48,260.5,556.86,712.33,787.59,781.14
"Manhattan","Electricity Demand (KW)",10040,40.855954,-73.927051,"549 Audubon Ave ","George Washington High School?",661,588,642,688,592,526.67,654,669,619,667,684,672
"Manhattan","Electricity Usage (KWH)",10040,40.855954,-73.927051,"549 Audubon Ave ","George Washington High School?",239000,177600,184600,220700,226266.67,198266.67,208200,204100,223500,283900,280400,269800
"Manhattan","Gas (Therms)",10040,40.855954,-73.927051,"549 Audubon Ave ","George Washington High School?",428,350.5,243.25,106.75,70,52,110,157.25,312.75,480.75,502,488.75
"Manhattan","Total Usage (mmBTUs)",10040,40.855954,-73.927051,"549 Audubon Ave ","George Washington High School?",858.5,641.19,654.36,763.92,779.24,681.88,721.58,712.31,794.07,1017.02,1007.2,969.69
"Manhattan","Electricity Demand (KW)",10016,40.746176,-73.981241,"111 East 33rd St ","Norman Thomas High School",642.8,696.6,784.2,874.2,888.53,810.4,861.8,877.6,644.4,639.2,640.8,633
"Manhattan","Electricity Usage (KWH)",10016,40.746176,-73.981241,"111 East 33rd St ","Norman Thomas High School",267700,242700,264900,317600,324533.33,310266.67,303300,270200,281200,280800,281300,274700
"Manhattan","Gas (Therms)",10016,40.746176,-73.981241,"111 East 33rd St ","Norman Thomas High School",0,0,0,0,0,0,0,0,0,0,0,0
"Manhattan","Steam (mlbs)",10016,40.746176,-73.981241,"111 East 33rd St ","Norman Thomas High School",1317.5,757.75,599.75,1855.25,2013.33,2328.67,1681.5,668.75,1019.25,1479.25,1868.75,1597
"Manhattan","Total Usage (mmBTUs)",10016,40.746176,-73.981241,"111 East 33rd St ","Norman Thomas High School",2385.54,1674.87,1574.13,3156.61,3356.88,3660.47,2913.69,1669.3,2098.41,2610.95,3047.8,2721.68
"Manhattan","Electricity Demand (KW)",10038,40.711442,-74.000851,"411 Pearl St ","Murry Bergtraum High School",730.68,768.56,875.96,883.28,785.17,765.83,844.8,856.48,758.32,712.64,727.72,725.68
"Manhattan","Electricity Usage (KWH)",10038,40.711442,-74.000851,"411 Pearl St ","Murry Bergtraum High School",385400,339300,383400,432400,374666.67,360133.33,375100,367600,375800,385800,376700,385200
"Manhattan","Gas (Therms)",10038,40.711442,-74.000851,"411 Pearl St ","Murry Bergtraum High School",104.25,79.25,112.25,74.5,3.67,13.33,55.5,95.75,92.75,98.25,82,79
"Manhattan","Steam (mlbs)",10038,40.711442,-74.000851,"411 Pearl St ","Murry Bergtraum High School",1874,1130.5,1404.25,2572,3614.67,3313.33,2401.75,1794.25,1330.25,2434,2948.5,2467.25
"Manhattan","Total Usage (mmBTUs)",10038,40.711442,-74.000851,"411 Pearl St ","Murry Bergtraum High School",3419.38,2428.92,2888.56,4356.61,5317.33,4932.05,3968.94,3268.68,2778,4045.77,4587.87,4078.94
"Manhattan","Electricity Demand (KW)",10006,40.709196,-74.012022,"100 Trinity Pl ","High School of Economics & Finance",235,270,327,332,313.33,304,338,331,263,240,240,239
"Manhattan","Electricity Usage (KWH)",10006,40.709196,-74.012022,"100 Trinity Pl ","High School of Economics & Finance",80200,85500,102700,113400,102800,96266.67,106700,94000,92900,101300,95500,91500
"Manhattan","Gas (Therms)",10006,40.709196,-74.012022,"100 Trinity Pl ","High School of Economics & Finance",64.5,58,62.5,49,12,9,52,64.25,64,66.5,52.5,56.75
"Manhattan","Steam (mlbs)",10006,40.709196,-74.012022,"100 Trinity Pl ","High School of Economics & Finance",534.5,343,520.75,512,1103.67,1074,713.5,188.5,308.25,643.25,817.25,693.75
"Manhattan","Total Usage (mmBTUs)",10006,40.709196,-74.012022,"100 Trinity Pl ","High School of Economics & Finance",877.3,680.8,938.53,963.93,1585.05,1529.31,1166.47,537.83,667.84,1071.01,1244.2,1093.01
"Manhattan","Electricity Demand (KW)",10006,40.70873,-74.012332,"90 Trinity Pl ","High School for Leadership in Public Services",42.8,47.2,52,52.8,42.67,42.13,52,50.8,46.4,44.8,43.6,42.4
"Manhattan","Electricity Usage (KWH)",10006,40.70873,-74.012332,"90 Trinity Pl ","High School for Leadership in Public Services",18480,18520,20360,22600,20693.33,19253.33,22280,21120,20360,22000,20080,19840
"Manhattan","Gas (Therms)",10006,40.70873,-74.012332,"90 Trinity Pl ","High School for Leadership in Public Services",45.5,35,50.25,28.5,6,5.67,35.25,49,43.25,39,42,36
"Manhattan","Gas Cost ($)",10006,40.70873,-74.012332,"90 Trinity Pl ","High School for Leadership in Public Services",89.23,67.86,86.77,59.02,30.11,27.84,71.51,94.77,90.06,81.39,89.47,75.73
"Manhattan","Steam (mlbs)",10006,40.70873,-74.012332,"90 Trinity Pl ","High School for Leadership in Public Services",493.5,422.75,598.25,1213.75,806.67,875.67,875.5,294.75,343.75,584,725.5,583.5
"Manhattan","Total Usage (mmBTUs)",10006,40.70873,-74.012332,"90 Trinity Pl ","High School for Leadership in Public Services",618.95,539,742.87,1435.96,972.42,1044.56,1057.66,406.27,457.84,731.42,883.25,723.19
"Bronx","Electricity Demand (KW)",10452,40.832706,-73.926838,"1020 Anderson Ave ","P.S.73X",138.8,146.8,164,182,183.47,161.07,176.8,160.4,138,141.2,142.8,143.2
"Bronx","Electricity Usage (KWH)",10452,40.832706,-73.926838,"1020 Anderson Ave ","P.S.73X",47760,43560,48320,55400,58080,54400,51760,50040,47840,50920,46440,47440
"Bronx","Gas (Therms)",10452,40.832706,-73.926838,"1020 Anderson Ave ","P.S.73X",1174.75,667.25,391.5,261.5,179.33,97.33,199,386.25,746.75,1581.75,1661.25,1295
"Bronx","Total Usage (mmBTUs)",10452,40.832706,-73.926838,"1020 Anderson Ave ","P.S.73X",280.48,215.4,204.06,215.23,216.16,195.4,196.55,209.41,237.95,331.97,324.62,291.41
"Bronx","Electricity Demand (KW)",10468,40.859752,-73.900161,"120 East 184th St ","Middle School 399",211.03,211.05,223.5,218.5,202,191.33,215,221.5,221.5,214.5,214.5,210.03
"Brooklyn","Gas (Therms)",11223,40.601433,-73.986139,"1855 Stillwell Ave ","The Highlawn School",172.5,91,127.75,55.25,119.33,34,101.25,47.25,103.5,58,219,63
"Bronx","Electricity Usage (KWH)",10468,40.859752,-73.900161,"120 East 184th St ","Middle School 399",70590,70080,87270,81090,57240,65920,68880,77490,73680,78270,72870,72690
"Bronx","Gas (Therms)",10468,40.859752,-73.900161,"120 East 184th St ","Middle School 399",4723.75,4115.75,1554,1110.25,615,594,816.25,2284.75,3366.5,3370.5,3140,5327.5
"Bronx","Gas Cost ($)",10468,40.859752,-73.900161,"120 East 184th St ","Middle School 399",5505.67,4406.27,1814.29,1216.85,769.52,743.45,1047.28,2776.58,3943.39,3948.6,3542.29,6221.88
"Bronx","Total Usage (mmBTUs)",10468,40.859752,-73.900161,"120 East 184th St ","Middle School 399",713.3,650.75,453.25,387.78,256.86,284.38,316.71,492.95,588.12,604.18,562.7,780.84
"Bronx","Electricity Demand (KW)",10458,40.860043,-73.888267,"500 East Fordham Rd ","Theodore Roosevelt High School",398,396,420,466,373.33,301.33,432,442,412,408,402,402
"Bronx","Electricity Usage (KWH)",10458,40.860043,-73.888267,"500 East Fordham Rd ","Theodore Roosevelt High School",143400,134200,145400,161400,138400,121866.67,148600,161800,162000,173800,163400,149800
"Bronx","Gas (Therms)",10458,40.860043,-73.888267,"500 East Fordham Rd ","Theodore Roosevelt High School",229.5,192.25,256.5,204,100.33,75.67,173.75,241.75,244.25,262.25,214,196
"Bronx","Total Usage (mmBTUs)",10458,40.860043,-73.888267,"500 East Fordham Rd ","Theodore Roosevelt High School",512.37,477.24,521.9,571.25,482.39,423.5,524.54,576.39,577.33,619.4,579.08,530.86
"Bronx","Electricity Demand (KW)",10464,40.843873,-73.785219,"200 City Island Ave ","The City Island School",151.4,177.4,209.2,249.4,238.93,197.07,231.4,221.6,165,169,168.4,160.2
"Bronx","Electricity Usage (KWH)",10464,40.843873,-73.785219,"200 City Island Ave ","The City Island School",48460,45160,52900,70620,62213.33,52320,68000,52920,52520,60900,56720,53340
"Bronx","Gas (Therms)",10464,40.843873,-73.785219,"200 City Island Ave ","The City Island School",1.25,0.25,0.5,0.25,0,0,0.5,0.25,0.75,0.75,1.25,0.5
"Bronx","Total Usage (mmBTUs)",10464,40.843873,-73.785219,"200 City Island Ave ","The City Island School",165.52,154.16,180.6,241.05,212.33,178.57,232.13,180.64,179.32,207.93,193.71,182.1
"Brooklyn","Gas (Therms)",11207,40.674135,-73.89643,"145 Pennsylvania Ave ","William H. Maxwell High School?",20819.75,11319.5,2982,552.75,242,390.33,108,4218,13405,27288.25,31213.75,34279
"Bronx","Electricity Demand (KW)",10453,40.85881,-73.909746,"2195 Andrews Ave ","Institute for Environmental Learning",383.16,415.6,390.04,660.6,731.84,606.08,650,608.04,396.36,396.24,394.64,384.12
"Bronx","Electricity Usage (KWH)",10453,40.85881,-73.909746,"2195 Andrews Ave ","Institute for Environmental Learning",198800,152000,140200,203400,262666.67,219733.33,192000,156400,166000,205600,203200,207000
"Bronx","Gas (Therms)",10453,40.85881,-73.909746,"2195 Andrews Ave ","Institute for Environmental Learning",14703,5399.5,2028.75,943.75,455.67,324.33,843.25,2249.75,5824.25,13272.5,21092.25,19858.5
"Brooklyn","Electricity Demand (KW)",11228,40.610963,-74.013376,"1400 Benson Ave ","Dyker School",295,275.2,324.2,404.2,360,306.67,348.6,322.6,267.8,293.6,305.6,298.2
"Bronx","Total Usage (mmBTUs)",10453,40.85881,-73.909746,"2195 Andrews Ave ","Institute for Environmental Learning",2148.8,1058.72,681.38,788.57,942.04,782.38,739.62,758.76,1148.98,2028.95,2802.74,2692.34
"Bronx","Electricity Demand (KW)",10463,40.880263,-73.910466,"360 West 230th St ","The Multiple Intelligence School",290,282,376,390,410.67,361.33,347,299,212,194,228,247
"Bronx","Electricity Usage (KWH)",10463,40.880263,-73.910466,"360 West 230th St ","The Multiple Intelligence School",82700,73500,104500,145500,172933.33,162800,144900,106400,87700,93100,86000,88500
"Bronx","Gas (Therms)",10463,40.880263,-73.910466,"360 West 230th St ","The Multiple Intelligence School",4041,1763.25,307,270.5,213.33,177.33,217.75,606,1626.75,6399.25,7147.5,7632.75
"Bronx","Total Usage (mmBTUs)",10463,40.880263,-73.910466,"360 West 230th St ","The Multiple Intelligence School",686.35,427.18,387.36,523.64,611.55,573.36,516.32,423.74,461.99,957.67,1008.27,1065.32
"Bronx","Electricity Demand (KW)",10467,40.870002,-73.878875,"3050 Webster Ave ","George J. Werdan III School",460.5,460.3,570.3,756.4,699.47,705.47,763.3,704.7,511.5,461.4,453.8,427.4
"Bronx","Electricity Usage (KWH)",10467,40.870002,-73.878875,"3050 Webster Ave ","George J. Werdan III School",156600,126350,143150,231000,233933.33,258400,221400,167700,154800,160900,173050,184800
"Bronx","Gas (Therms)",10467,40.870002,-73.878875,"3050 Webster Ave ","George J. Werdan III School",12952.75,4897.5,1585.25,433.5,233.33,1106.33,1577,3193.5,11691,18354.75,18630.5,16801.25
"Queens","Electricity Demand (KW)",11385,40.703779,-73.896374,"60-85 Catalpa Ave ","Seneca School",248,243,337,352,340,309.33,365,322,237,261,264,261
"Bronx","Total Usage (mmBTUs)",10467,40.870002,-73.878875,"3050 Webster Ave ","George J. Werdan III School",1829.75,920.98,647.09,831.75,821.74,992.55,913.33,891.71,1697.43,2384.62,2453.66,2310.85
"Brooklyn","Electricity Cost ($)",11207,40.663673,-73.893754,"557 Pennsylvania Ave ","Roberto Clemente School",13746.51,12345.3,16819.97,22201.02,19209.64,17417.69,20836.21,17914.98,13814.96,13711.15,13334.05,13505.14
"Brooklyn","Electricity Demand (KW)",11207,40.663673,-73.893754,"557 Pennsylvania Ave ","Roberto Clemente School",255,249,369,448,388,358.67,465,409,300,265,259,257
"Brooklyn","Electricity Usage (KWH)",11207,40.663673,-73.893754,"557 Pennsylvania Ave ","Roberto Clemente School",74300,63600,75400,104500,92800,86666.67,96700,84000,74400,79700,72100,74000
"Brooklyn","Gas (Therms)",11207,40.663673,-73.893754,"557 Pennsylvania Ave ","Roberto Clemente School",25.5,69.25,27.25,43.75,57,61,16.25,107.25,29.5,81,26,87.25
"Brooklyn","Total Usage (mmBTUs)",11207,40.663673,-73.893754,"557 Pennsylvania Ave ","Roberto Clemente School",256.13,223.99,260.06,361.03,322.43,301.89,331.66,297.41,256.88,280.11,248.67,261.28
"Brooklyn","Electricity Demand (KW)",11221,40.693161,-73.935765,"990 Dekalb Ave ","Thaddeus Stevens School",201.6,182.4,194.4,262.8,256.8,213.6,265.2,227.4,203.4,200.4,199.2,201
"Brooklyn","Electricity Usage (KWH)",11221,40.693161,-73.935765,"990 Dekalb Ave ","Thaddeus Stevens School",58620,51480,56940,66060,57680,69120,63540,61920,65820,62460,59220,57840
"Brooklyn","Gas (Therms)",11221,40.693161,-73.935765,"990 Dekalb Ave ","Thaddeus Stevens School",4479,2964,1883,468.5,78.67,335.33,114.75,726.75,1545.75,2919.75,3838,5103
"Brooklyn","Total Usage (mmBTUs)",11221,40.693161,-73.935765,"990 Dekalb Ave ","Thaddeus Stevens School",647.97,472.1,382.64,272.31,204.73,269.44,228.34,284,379.21,505.15,585.92,707.71
"Brooklyn","Electricity Demand (KW)",11223,40.601433,-73.986139,"1855 Stillwell Ave ","The Highlawn School",166.3,197.1,217.5,258.9,226,187.87,237.5,217.6,172.7,173.6,173.2,173.6
"Brooklyn","Electricity Usage (KWH)",11223,40.601433,-73.986139,"1855 Stillwell Ave ","The Highlawn School",46400,40030,44800,57850,55653.33,45240,55120,45150,45920,50380,47730,48320
"Brooklyn","Total Usage (mmBTUs)",11223,40.601433,-73.986139,"1855 Stillwell Ave ","The Highlawn School",175.61,145.72,165.68,202.97,201.88,157.8,198.25,158.82,167.07,177.75,184.8,171.22
"Brooklyn","Electricity Demand (KW)",11235,40.579451,-73.943819,"131 Irwin St ","Manhattan Beach School",92.4,88,91.6,103.6,85.33,62.4,103.6,100.4,89.6,92,94.4,94
"Brooklyn","Electricity Usage (KWH)",11235,40.579451,-73.943819,"131 Irwin St ","Manhattan Beach School",26400,22240,24840,28680,17600,17653.33,26040,26320,25080,25240,25080,25280
"Brooklyn","Gas (Therms)",11235,40.579451,-73.943819,"131 Irwin St ","Manhattan Beach School",14590.25,7602,2053.75,1432.25,93.33,309.67,108.75,2660.5,8435.25,14355.75,16394.25,20738
"Brooklyn","Total Usage (mmBTUs)",11235,40.579451,-73.943819,"131 Irwin St ","Manhattan Beach School",1549.13,836.1,290.15,241.11,69.4,91.22,99.75,355.88,929.12,1521.72,1725.02,2160.08
"Brooklyn","Electricity Usage (KWH)",11228,40.610963,-74.013376,"1400 Benson Ave ","Dyker School",110220,99980,99960,137420,134773.33,128933.33,115340,110740,108980,136280,126740,135860
"Brooklyn","Gas (Therms)",11228,40.610963,-74.013376,"1400 Benson Ave ","Dyker School",5280.75,3337.75,977.75,4795.75,264,138,54.5,598.25,2238.5,5027.5,6486.25,10202.75
"Brooklyn","Total Usage (mmBTUs)",11228,40.610963,-74.013376,"1400 Benson Ave ","Dyker School",904.25,675,438.94,948.59,486.38,453.85,399.1,437.78,595.8,967.87,1081.18,1483.96
"Brooklyn","Electricity Demand (KW)",11225,40.669339,-73.960675,"976 President St ","Emma Johnston PS 241",100,95,90,142,133.33,136,112,99,97,101,106,101
"Brooklyn","Electricity Usage (KWH)",11225,40.669339,-73.960675,"976 President St ","Emma Johnston PS 241",32300,28100,28400,35800,36000,36000,29900,31900,32100,34400,32800,33500
"Brooklyn","Gas (Therms)",11225,40.669339,-73.960675,"976 President St ","Emma Johnston PS 241",7736,4569.75,1116,591,137,361.33,294.25,2112.25,3547.5,6289,9390.5,9209.75
"Brooklyn","Total Usage (mmBTUs)",11225,40.669339,-73.960675,"976 President St ","Emma Johnston PS 241",883.84,552.88,208.53,181.28,136.57,159,131.47,320.1,464.31,746.31,1050.99,1035.31
"Brooklyn","Electricity Demand (KW)",11221,40.688419,-73.924833,"794 Monroe St ","George E. Wibecan School",147,144,153.3,198.6,179.2,144,182.7,171.9,150.3,150,148.8,147.9
"Brooklyn","Electricity Usage (KWH)",11221,40.688419,-73.924833,"794 Monroe St ","George E. Wibecan School",50940,43830,47400,57540,39400,45200,56910,53550,49500,55470,51840,50340
"Brooklyn","Gas (Therms)",11221,40.688419,-73.924833,"794 Monroe St ","George E. Wibecan School",142.75,67.5,80.5,52.25,112.67,14.33,45.25,26,28.75,33.25,204.5,67.75
"Brooklyn","Total Usage (mmBTUs)",11221,40.688419,-73.924833,"794 Monroe St ","George E. Wibecan School",188.13,156.34,169.83,201.61,145.74,155.7,198.76,185.37,171.82,192.64,197.38,178.58
"Brooklyn","Electricity Demand (KW)",11212,40.668475,-73.912351,"111 Bristol St ","Dr. Rose B. English",235,251,361,503,370.67,428,439,384,261,241,235,246
"Brooklyn","Electricity Usage (KWH)",11212,40.668475,-73.912351,"112 Bristol St ","Dr. Rose B. English",66600,65800,74200,112700,141600,107333.33,106100,82200,76100,83300,76200,82000
"Brooklyn","Gas (Therms)",11212,40.668475,-73.912351,"113 Bristol St ","Dr. Rose B. English",32,181.5,57.25,120.75,23.33,85,13.5,241.25,49,167.75,53.75,111.5
"Brooklyn","Total Usage (mmBTUs)",11212,40.668475,-73.912351,"114 Bristol St ","Dr. Rose B. English",230.5,242.72,258.97,396.72,485.61,374.83,363.46,304.67,264.63,301.08,265.44,291.01
"Brooklyn","Electricity Demand (KW)",11215,40.669629,-73.979287,"237 7th Ave ","John Jay High School",326.5,326.5,342.5,411.75,347.33,336.33,357.5,342.75,338.5,324.75,319,328
"Brooklyn","Electricity Usage (KWH)",11215,40.669629,-73.979287,"237 7th Ave ","John Jay High School",120630,109620,124620,116490,107640,102120,110730,117360,117390,127110,117450,123390
"Brooklyn","Gas (Therms)",11215,40.669629,-73.979287,"237 7th Ave ","John Jay High School",3366.25,1362,610.25,140.25,81.67,129.67,65.25,439.75,2334,3414.25,5124.5,4857.75
"Brooklyn","Total Usage (mmBTUs)",11215,40.669629,-73.979287,"237 7th Ave ","John Jay High School",748.34,510.33,486.35,411.6,375.54,361.5,384.44,444.52,634.05,775.25,913.31,906.9
"Brooklyn","Electricity Demand (KW)",11207,40.674135,-73.89643,"145 Pennsylvania Ave ","William H. Maxwell High School?",378.86,435.98,479.08,676.62,675.49,579.07,675.12,505.06,385.14,388.44,388.02,376.08
"Brooklyn","Electricity Usage (KWH)",11207,40.674135,-73.89643,"145 Pennsylvania Ave ","William H. Maxwell High School?",126200,83500,117200,174400,171066.67,154666.67,172000,125900,114300,153900,148400,144100
"Brooklyn","Total Usage (mmBTUs)",11207,40.674135,-73.89643,"145 Pennsylvania Ave ","William H. Maxwell High School?",2512.69,1416.93,698.2,650.5,608.05,566.91,597.83,851.49,1730.6,3254.08,3627.86,3919.71
"Brooklyn","Electricity Demand (KW)",11209,40.619931,-74.028086,"415 89th St ","Brooklyn School District 20?",159,165,189,204,198,188,202.5,199.5,160.5,163.5,165,159
"Brooklyn","Electricity Usage (KWH)",11209,40.619931,-74.028086,"415 89th St ","Brooklyn School District 20?",62250,57600,68700,87450,84200,78400,80400,70800,63150,68100,67950,66600
"Brooklyn","Gas (Therms)",11209,40.619931,-74.028086,"415 89th St ","Brooklyn School District 20?",1834.5,962.75,2102.25,4720.5,8412.67,8360.67,5421.5,1930.5,1258.25,2847.5,3648,3118.25
"Brooklyn","Total Usage (mmBTUs)",11209,40.619931,-74.028086,"415 89th St ","Brooklyn School District 20?",395.91,292.86,444.69,770.51,1128.64,1103.64,816.55,434.69,341.35,517.17,596.71,539.13
"Brooklyn","Electricity Demand (KW)",11225,40.6701,-73.954972,"402 Eastern Pkwy ","Medger Evers Middle College",410,378,378,422,480,458.67,340,342,330,402,430,414
"Brooklyn","Electricity Usage (KWH)",11225,40.6701,-73.954972,"402 Eastern Pkwy ","Medger Evers Middle College",141000,104400,104200,116800,123733.33,120266.67,100800,97800,106000,157200,162600,159600
"Brooklyn","Gas (Therms)",11225,40.6701,-73.954972,"402 Eastern Pkwy ","Medger Evers Middle College",1950.75,441.25,126.25,0,0.67,0,20.25,58,441,823.25,1994,1148
"Brooklyn","Total Usage (mmBTUs)",11225,40.6701,-73.954972,"402 Eastern Pkwy ","Medger Evers Middle College",676.31,400.44,368.25,398.63,422.36,410.47,346.05,339.59,405.88,618.85,754.35,659.51
"Queens","Electricity Demand (KW)",11412,40.690828,-73.763907,"187-01 Foch Blvd ","Saint Albans School",151.8,140.8,124.6,139.8,135.47,109.6,143.4,150.2,151.2,155.6,157.4,153.2
"Queens","Electricity Usage (KWH)",11412,40.690828,-73.763907,"187-01 Foch Blvd ","Saint Albans School",51900,39000,32620,33160,37813.33,35200,32940,38520,39440,54660,65480,59960
"Queens","Gas (Therms)",11412,40.690828,-73.763907,"187-01 Foch Blvd ","Saint Albans School",692,130.25,204.25,190,246.67,117,195,80.25,258,113.75,299.75,122.25
"Queens","Total Usage (mmBTUs)",11412,40.690828,-73.763907,"187-01 Foch Blvd ","Saint Albans School",246.33,146.13,131.76,132.17,153.72,131.84,131.93,139.5,160.41,197.93,253.45,216.87
"Queens","Electricity Usage (KWH)",11385,40.703779,-73.896374,"60-85 Catalpa Ave ","Seneca School",76600,64900,67600,87200,84400,78400,78600,69700,82900,84200,81000,82400
"Queens","Gas (Therms)",11385,40.703779,-73.896374,"60-85 Catalpa Ave ","Seneca School",5627.5,3221.5,923.5,224,282.33,134.33,127.25,799.75,4066.25,7064.5,9630.75,7758.75
"Queens","Total Usage (mmBTUs)",11385,40.703779,-73.896374,"60-85 Catalpa Ave ","Seneca School",824.18,543.65,323.06,320.01,316.29,281.01,280.99,317.86,689.56,993.82,1239.52,1057.11
"Queens","Electricity Demand (KW)",11385,40.702513,-73.852566,"85-52 85th St ","Forest Park School",154,146,159,183,168,93.33,172,160,148,161,164,161
"Queens","Electricity Usage (KWH)",11385,40.702513,-73.852566,"85-52 85th St ","Forest Park School",47900,37000,34700,46700,26266.67,23466.67,38200,38100,43100,53500,51700,51500
"Queens","Gas (Therms)",11385,40.702513,-73.852566,"85-52 85th St ","Forest Park School",4333.5,4655.5,1329.75,556.25,299.67,238.67,98.25,1069.75,2818,5369.5,5299.75,7239.75
"Queens","Gas (Therms)",11691,40.593834,-73.76174,"160 Beach 29th St ","P.S.43Q",7420.25,3037.25,11557.75,3713.5,4180.67,506,684.25,5086.75,6871.75,21055,12955,20323.75
"Queens","Gas Cost ($)",11385,40.702513,-73.852566,"85-52 85th St ","Forest Park School",4802.09,5695.58,1572.61,892.39,608.83,524.51,333.89,1452.52,3238.02,6463.24,6070.21,8672.22
"Queens","Total Usage (mmBTUs)",11385,40.702513,-73.852566,"85-52 85th St ","Forest Park School",596.83,591.83,251.41,215.01,119.62,103.96,140.2,237.01,428.9,719.54,706.42,899.74
"Queens","Electricity Demand (KW)",11101,40.739254,-73.942447,"25-05 37th Ave ","Dutch Kills",109,109,126,144.5,139.33,96.67,144.5,134,118.5,115.5,114.5,110.5
"Queens","Electricity Usage (KWH)",11101,40.739254,-73.942447,"25-05 37th Ave ","Dutch Kills",32850,29610,32295,36120,31060,28140,30555,33135,32730,34710,32880,31575
"Queens","Gas (Therms)",11101,40.739254,-73.942447,"25-05 37th Ave ","Dutch Kills",36002,24039.5,21665.75,20480.5,25.33,129,70.5,4471.25,11251.75,13545,12316.75,37296.75
"Queens","Total Usage (mmBTUs)",11101,40.739254,-73.942447,"25-05 37th Ave ","Dutch Kills",3712.32,2505.01,2276.8,2171.33,108.54,108.94,111.33,560.22,1236.88,1472.96,1343.89,3837.44
"Queens","Electricity Demand (KW)",11418,40.695888,-73.833681,"89-30 114th St ","Richmond Hill High School",468,436.5,437,390,355.33,297.33,393.5,417.5,437,464.5,473,466
"Queens","Electricity Usage (KWH)",11418,40.695888,-73.833681,"89-30 114th St ","Richmond Hill High School",136200,115400,125350,121500,104400,97733.33,105300,115450,129500,147050,141800,144250
"Queens","Gas (Therms)",11418,40.695888,-73.833681,"89-30 114th St ","Richmond Hill High School",15.75,56,16.5,54,9.67,33.67,7.75,45.25,12.75,57.25,16,42.5
"Queens","Total Usage (mmBTUs)",11418,40.695888,-73.833681,"89-30 114th St ","Richmond Hill High School",466.42,399.46,429.47,420.08,357.28,336.93,360.16,398.55,443.26,507.6,485.56,496.57
"Queens","Electricity Demand (KW)",11691,40.593834,-73.76174,"160 Beach 29th St ","P.S.43Q",313.25,243.38,297.88,795.75,1143,691.17,1135.38,561.62,300.88,362.12,398.38,278.62
"Queens","Electricity Usage (KWH)",11691,40.593834,-73.76174,"160 Beach 29th St ","P.S.43Q",99605,118210,86200,124560,220333.33,247226.67,258420,140660,127350,133440,154490,151920
"Queens","Total Usage (mmBTUs)",11691,40.593834,-73.76174,"160 Beach 29th St ","P.S.43Q",1081.97,707.17,1449.97,796.47,1170.05,894.38,950.4,988.74,1121.82,2560.92,1822.77,2550.87
"Queens","Electricity Demand (KW)",11426,40.745948,-73.727456,"74-30 Commonwealth Blvd ","P.S.208Q",395.64,374.36,575.72,711.52,675.28,661.57,682.54,618.62,441.48,340.52,415.56,415.74
"Queens","Electricity Usage (KWH)",11426,40.745948,-73.727456,"74-30 Commonwealth Blvd ","P.S.208Q",131500,115500,151200,208400,221200,222133.33,172000,138000,115200,145900,160100,157000
"Queens","Gas (Therms)",11426,40.745948,-73.727456,"74-30 Commonwealth Blvd ","P.S.208Q",5262,1418.5,499.5,428,317,300.33,394.25,459.5,3137.75,7672.75,9894,9016.75
"Queens","Total Usage (mmBTUs)",11426,40.745948,-73.727456,"74-30 Commonwealth Blvd ","P.S.208Q",975.01,536.05,565.99,754.06,786.65,788.17,626.46,516.94,706.95,1265.23,1535.82,1437.51
"Staten Island","Electricity Demand (KW)",10301,40.608517,-74.102078,"715 Ocean Ter ","The Michael J. Petrides School",710.85,671.21,675.01,1037.59,985.71,998.56,1065.89,875.02,714.8,735.68,712.37,727.11
"Staten Island","Electricity Usage (KWH)",10301,40.608517,-74.102078,"715 Ocean Ter ","The Michael J. Petrides School",366770,252290,239000,335230,355226.67,345560,319235,255005,304545,416205,394250,393505
"Staten Island","Gas (Therms)",10301,40.608517,-74.102078,"715 Ocean Ter ","The Michael J. Petrides School",32261.75,13853.5,3846.75,6600.5,9290.33,12089.67,6834,4682,17813,42419.75,48947.5,44958.75
"Staten Island","Total Usage (mmBTUs)",10301,40.608517,-74.102078,"715 Ocean Ter ","The Michael J. Petrides School",4477.95,2246.41,1200.38,1804.18,2141.41,2388.35,1772.94,1338.53,2820.7,5662.47,6240.31,5838.9
"Bronx","Electricity Demand (KW)",10472,40.831601,-73.878912,"1300 Boynton Ave ","James Monroe High School",709.24,718.64,730.24,880.4,1009.76,947.47,861.48,844.52,808.52,788,711.92,688.72
"Bronx","Electricity Usage (KWH)",10472,40.831601,-73.878912,"1300 Boynton Ave ","James Monroe High School",281500,251300,262700,324300,411733.33,391200,324400,298200,299600,342200,288000,262200
"Bronx","Gas (Therms)",10472,40.831601,-73.878912,"1300 Boynton Ave ","James Monroe High School",5984.75,4294.25,1697.5,802.25,381.33,473.67,2069.5,2919,5685,7279.5,7315.25,7555.75
"Bronx","Gas Cost ($)",10472,40.831601,-73.878912,"1300 Boynton Ave ","James Monroe High School",7345.89,5009.04,1951.87,915.4,518.57,650.07,2568.1,3611.14,6906.23,8740.82,8544.05,9045.89
"Bronx","Total Usage (mmBTUs)",10472,40.831601,-73.878912,"1300 Boynton Ave ","James Monroe High School",1559.23,1287.11,1066.34,1187.05,1443.37,1382.52,1314.12,1309.65,1591.03,1895.87,1714.46,1650.45
"Bronx","Electricity Demand (KW)",10460,40.836356,-73.888361,"1716 Southern Blvd ","MS / High School 270",304,349,360,391,389.33,378.67,373,372,337,297,300,284
"Bronx","Electricity Usage (KWH)",10460,40.836356,-73.888361,"1716 Southern Blvd ","MS / High School 270",122100,116400,126800,138300,166933.33,169733.33,146500,127900,117700,137500,128900,126800
"Bronx","Gas (Therms)",10460,40.836356,-73.888361,"1716 Southern Blvd ","MS / High School 270",1372.5,813.5,518,393.5,335.33,323,631.75,480.25,597,2738.75,3140,3066.75
"Bronx","Total Usage (mmBTUs)",10460,40.836356,-73.888361,"1716 Southern Blvd ","MS / High School 270",553.98,478.62,484.56,511.36,603.27,611.59,563.18,484.54,461.41,743.16,753.93,739.44
